<?xml version="1.0" encoding="UTF-8"?>
<kml xmlns="http://www.opengis.net/kml/2.2" 
	xmlns:atom="http://www.w3.org/2005/Atom" 
	xmlns:gx="http://www.google.com/kml/ext/2.2" 
	>
<Document>
	<name>聊热北线</name>
	<Placemark>
		<name>聊热北线</name>
		<Style>
			<LineStyle><color>ff0000ff</color><width>3</width></LineStyle>
		</Style>
		<OvStyle>
			<TrackStyle><type>4</type><width>3</width><LineType>0</LineType></TrackStyle>
		</OvStyle>
		<OvCoordType>CGCS2000</OvCoordType>
			<LineString>
				<coordinates>117.07582783,36.79387153,0 117.07012463,36.78972511,0 117.06731929,36.78590643,0 117.06464795,36.78433142,0 117.06464899,36.78368694,0 117.05768231,36.78366155,0 117.04982199,36.78287374,0 117.04379082,36.78144845,0 117.03833780,36.77971692,0 117.02997208,36.77766744,0 117.02482224,36.77594874,0 117.01392174,36.77326748,0 116.99898720,36.77278622,0 116.99749273,36.77273594,0 116.99689262,36.76892296,0 116.99401352,36.76885383,0 116.99153161,36.76901587,0 116.99125456,36.76941831,0 116.99112189,36.77141739,0 116.97556546,36.77349274,0 116.97485472,36.77248027,0 116.96531395,36.77266923,0 116.96388436,36.77243877,0 116.96319580,36.76872976,0 116.96227847,36.76670739,0 116.96077272,36.76581190,0 116.95624352,36.76618577,0 116.94156747,36.76741095,0 116.94110661,36.76795327,0 116.93590164,36.76859225,0 116.93090122,36.76890751,0 116.92407641,36.76942865,0 116.91633224,36.76927980,0 116.91467920,36.76864966,0 116.89802752,36.76669553,0 116.89793813,36.76730426,0 116.89622484,36.76714056,0 116.89631467,36.76653207,0 116.89345413,36.76610116,0 116.86952296,36.77247150,0 116.87023640,36.77473788,0 116.86235398,36.77558045,0 116.85690073,36.77345808,0 116.85600201,36.77501055,0 116.84692812,36.77161390,0 116.83301223,36.77218995,0 116.82595253,36.77120492,0 116.82284546,36.77106868,0 116.82284363,36.77038232,0 116.82054520,36.77003610,0 116.81891905,36.76886410,0 116.81812756,36.76950151,0 116.80717061,36.76951982,0 116.80716965,36.76913775,0 116.80607368,36.76913952,0 116.80008389,36.76481893,0 116.79710754,36.76666913,0 116.79473465,36.76494901,0 116.77770999,36.76484904,0 116.77771317,36.76942412,0 116.77583347,36.76958280,0 116.77583480,36.76912515,0 116.77411523,36.76774631,0 116.77447307,36.76658763,0 116.77101638,36.75751643,0 116.77453995,36.75635280,0 116.77608490,36.75332701,0 116.77428246,36.75098882,0 116.77419634,36.75007704,0 116.76982819,36.74909583,0 116.76759972,36.74962421,0 116.76463032,36.74735486,0 116.76431447,36.74576715,0 116.76261392,36.74459027,0 116.76225750,36.74333454,0 116.76152360,36.74285274,0 116.76058395,36.74182156,0 116.76037821,36.74127219,0 116.75816031,36.74152249,0 116.75583278,36.73942321,0 116.75314228,36.73861076,0 116.74722464,36.73369301,0 116.74617371,36.73390484,0 116.73434597,36.72934909,0 116.72741890,36.72347538,0 116.72639261,36.72198327,0 116.72190159,36.71963603,0 116.71949322,36.71411547,0 116.71670535,36.71246094,0 116.71305404,36.69924825,0 116.71030111,36.69969492,0 116.71010068,36.69841735,0 116.68896078,36.68844437,0 116.68826459,36.68773361,0 116.68191277,36.68457250,0 116.67791505,36.68295197,0 116.64657715,36.67277869,0 116.64682153,36.67170472,0 116.63978664,36.67066577,0 116.63924941,36.66903522,0 116.63647586,36.66876657,0 116.60934037,36.66829711,0 116.60470226,36.66842978,0 116.60464863,36.66803723,0 116.59392171,36.66898775,0 116.59369604,36.66958277,0 116.59247982,36.66916076,0 116.57060623,36.66841892,0 116.56745615,36.66850543,0 116.55785982,36.66507603,0 116.55786239,36.66462669,0 116.55172010,36.66306629,0 116.54871941,36.66304880,0 116.54508299,36.66183457,0 116.53945501,36.65913555,0 116.52123540,36.64873651,0 116.51392466,36.64937035,0 116.51344299,36.64838235,0 116.50637420,36.64598142,0 116.48692605,36.63888153,0 116.44825548,36.63942637,0 116.44730647,36.64064859,0 116.44231990,36.64021582,0 116.43626314,36.64074103,0 116.43362045,36.64108251,0 116.43201488,36.64376892,0 116.41652125,36.64402829,0 116.41113281,36.64342405,0 116.40495300,36.64404385,0 116.39800072,36.64356178,0 116.39738858,36.64394927,0 116.37853197,36.63945838,0 116.37457816,36.63865172,0 116.36452675,36.63653698,0 116.36025695,36.63426895,0 116.34463975,36.63520186,0 116.32350923,36.63614115,0 116.31848802,36.63356878,0 116.31405830,36.63199118,0 116.30802688,36.62912453,0 116.30676270,36.63054473,0 116.29799936,36.62978712,0 116.29792053,36.62939449,0 116.29131317,36.62992482,0 116.28547668,36.62964930,0 116.28135038,36.62965151,0 116.27741709,36.62734740,0 116.27293897,36.62744250,0 116.27248367,36.62606978,0 116.25964165,36.62627411,0 116.25065997,36.62678398,0 116.23345027,36.62675969,0 116.23269617,36.62627184,0 116.23118584,36.61595141,0 </coordinates>
			</LineString>
	</Placemark>
</Document>
</kml>

<?xml version="1.0" encoding="UTF-8"?>
<kml xmlns="http://www.opengis.net/kml/2.2" 
	xmlns:atom="http://www.w3.org/2005/Atom" 
	xmlns:gx="http://www.google.com/kml/ext/2.2" 
	>
<Document>
	<name>聊热南线</name>
	<Placemark>
		<name>聊热南线</name>
		<Style>
			<LineStyle><color>ff0000ff</color><width>3</width></LineStyle>
		</Style>
		<OvStyle>
			<TrackStyle><type>4</type><width>3</width><LineType>0</LineType></TrackStyle>
		</OvStyle>
		<OvCoordType>CGCS2000</OvCoordType>
			<LineString>
				<coordinates>116.71067915,36.55861108,0 116.71001661,36.55871335,0 116.70978444,36.55773437,0 116.70890821,36.55684707,0 116.70786320,36.55578882,0 116.70510935,36.55612265,0 116.70455580,36.55315183,0 116.69389223,36.55444409,0 116.68976409,36.54333949,0 116.68862181,36.54347848,0 116.68850525,36.54285474,0 116.68077525,36.54379499,0 116.68062776,36.54371901,0 116.63262992,36.55571870,0 116.63285416,36.55665337,0 116.62218119,36.55877646,0 116.60985334,36.56148842,0 116.59923077,36.53908800,0 116.57530479,36.54103842,0 116.57376338,36.53723679,0 116.57190098,36.53673059,0 116.57150145,36.53768778,0 116.55886131,36.53789259,0 116.55884636,36.53728989,0 116.52933389,36.53758963,0 116.52933141,36.53797594,0 116.52550220,36.53801910,0 116.51789510,36.53712527,0 116.51512078,36.53736804,0 116.50035338,36.53697676,0 116.49322987,36.53698467,0 116.44958496,36.53612263,0 116.44811779,36.53611973,0 116.44610800,36.53609625,0 116.44287317,36.53603352,0 116.42040253,36.53612263,0 116.42001989,36.53651507,0 116.39986064,36.53302009,0 116.39037962,36.53281651,0 116.38985577,36.53316564,0 116.38813019,36.53174333,0 116.38146696,36.52876352,0 116.37973421,36.52744754,0 116.37186559,36.52144227,0 116.36381448,36.51515238,0 116.36202901,36.51431825,0 116.35518167,36.50935899,0 116.35471676,36.50978969,0 116.34001262,36.49980089,0 116.33977316,36.49763794,0 116.33392248,36.49805991,0 116.33313539,36.49058057,0 </coordinates>
			</LineString>
	</Placemark>
</Document>
</kml>

<?xml version="1.0" encoding="UTF-8"?>
<kml xmlns="http://www.opengis.net/kml/2.2" 
	xmlns:atom="http://www.w3.org/2005/Atom" 
	xmlns:gx="http://www.google.com/kml/ext/2.2" 
	>
<Document>
	<name>石热全线</name>
	<Placemark>
		<name>石热全线</name>
		<Style>
			<LineStyle><color>75ff0000</color><width>3</width></LineStyle>
		</Style>
		<OvStyle>
			<TrackStyle><type>4</type><width>3</width><LineType>0</LineType></TrackStyle>
		</OvStyle>
		<OvCoordType>CGCS2000</OvCoordType>
			<LineString>
				<coordinates>116.87512975,36.60934830,0 116.87721123,36.60931270,0 116.87687933,36.60638115,0 116.86768764,36.60464916,0 116.86761481,36.60350320,0 116.85707353,36.60158754,0 116.85080002,36.60062978,0 116.84598581,36.60020832,0 116.84499708,36.60055092,0 116.84426636,36.59996425,0 116.82193191,36.60042220,0 116.80914434,36.60100504,0 116.80705441,36.59727423,0 116.78275673,36.59975760,0 116.77257296,36.59681140,0 116.76687724,36.59441478,0 116.76640929,36.59506058,0 116.76519597,36.59482275,0 116.76322004,36.59371547,0 116.76218991,36.59412823,0 116.75691176,36.59116484,0 116.75760075,36.59045067,0 116.74804410,36.58329166,0 116.74296261,36.58439986,0 116.73975584,36.58145410,0 116.73925029,36.58160400,0 116.73701210,36.58018097,0 116.73602611,36.58011260,0 116.73428158,36.57814437,0 116.73382263,36.57639322,0 116.72321255,36.57426688,0 116.72155526,36.57476475,0 116.72064204,36.57337393,0 116.71858566,36.57413401,0 116.71329854,36.56058801,0 116.70904041,36.56159577,0 116.70768780,36.55617149,0 116.70571483,36.55641712,0 116.70404841,36.55326416,0 116.69381307,36.55454481,0 116.68778184,36.53820175,0 116.67878695,36.53388903,0 116.68031416,36.52691943,0 116.67543676,36.51045085,0 116.67458105,36.50783223,0 116.67336137,36.50840866,0 116.67090091,36.50225369,0 116.66730568,36.50288121,0 116.66311250,36.49082015,0 116.65840561,36.47765417,0 116.65333593,36.47838282,0 116.65070047,36.47718512,0 116.64933113,36.47153053,0 116.64487844,36.47236587,0 116.63862712,36.46878811,0 116.63593785,36.46113497,0 116.62115373,36.42643589,0 116.61789686,36.42422972,0 116.61506829,36.42064202,0 116.59739463,36.41015222,0 116.58358081,36.39868672,0 116.57499232,36.38431399,0 116.56554041,36.36637592,0 116.53543182,36.35108005,0 116.52360317,36.34665604,0 116.50942613,36.33856819,0 116.49805671,36.32650707,0 116.50064147,36.32222882,0 116.49426737,36.31750866,0 116.49438789,36.31242466,0 116.49401075,36.30063690,0 116.49142684,36.29737902,0 116.48832619,36.29377375,0 116.48402638,36.29022348,0 116.47954118,36.28786972,0 116.47721612,36.28481995,0 116.47471886,36.28246137,0 116.47304531,36.28220006,0 116.47067151,36.28220837,0 116.47454784,36.27558976,0 116.47771861,36.27013250,0 116.48591784,36.26118626,0 116.48751349,36.25434029,0 116.49255196,36.24812816,0 116.49836721,36.24229791,0 116.49935797,36.24115898,0 116.50138155,36.23539189,0 116.50202909,36.23466129,0 116.50302048,36.22767347,0 116.50530162,36.22748046,0 116.50582944,36.22524101,0 116.51130413,36.22530450,0 116.51116133,36.22136389,0 116.50953356,36.22114168,0 116.50979205,36.22018192,0 116.50896844,36.22001945,0 </coordinates>
			</LineString>
	</Placemark>
</Document>
</kml>
